M2 PATHFINDER           
1 45727U 20037E   26068.47969609  .00004468  00000+0  32592-3 0  9994
2 45727  97.8158 258.5983 0012405 127.8041 232.4310 15.04175941310501
STARLINK-4376           
1 53216U 22084AD  26068.74587419 -.00000413  00000+0 -27617-4 0  9996
2 53216  97.6035 130.2554 0001449 193.6697 166.4488 15.01263228199329
