[{"OBJECT_NAME":"M2 PATHFINDER","OBJECT_ID":"2020-037E","EPOCH":"2026-03-09T11:30:45.742176","MEAN_MOTION":15.04175941,"ECCENTRICITY":0.00124059,"INCLINATION":97.8158,"RA_OF_ASC_NODE":258.5983,"ARG_OF_PERICENTER":127.8041,"MEAN_ANOMALY":232.431,"EPHEMERIS_TYPE":0,"CLASSIFICATION_TYPE":"U","NORAD_CAT_ID":45727,"ELEMENT_SET_NO":999,"REV_AT_EPOCH":31050,"BSTAR":0.00032591881,"MEAN_MOTION_DOT":4.468e-5,"MEAN_MOTION_DDOT":0},{"OBJECT_NAME":"STARLINK-4376","OBJECT_ID":"2022-084AD","EPOCH":"2026-03-09T17:54:03.530880","MEAN_MOTION":15.01263228,"ECCENTRICITY":0.00014488,"INCLINATION":97.6035,"RA_OF_ASC_NODE":130.2554,"ARG_OF_PERICENTER":193.6697,"MEAN_ANOMALY":166.4488,"EPHEMERIS_TYPE":0,"CLASSIFICATION_TYPE":"U","NORAD_CAT_ID":53216,"ELEMENT_SET_NO":999,"REV_AT_EPOCH":19932,"BSTAR":-2.7617379e-5,"MEAN_MOTION_DOT":-4.13e-6,"MEAN_MOTION_DDOT":0}]
